{
"type": "FeatureCollection",
"name": "facilities",
"crs": { "type": "name", "properties": { "name": "urn:ogc:def:crs:OGC:1.3:CRS84" } },
"features": [
{ "type": "Feature", "properties": { "kind": "hospital", "name": "Durga Nursing Home", "capacity": 0, "is_shelter": false }, "geometry": { "type": "Point", "coordinates": [ 83.2713316, 17.7362275 ] } },
{ "type": "Feature", "properties": { "kind": "school", "name": "sri gawri degree and PG College", "capacity": 300, "is_shelter": true }, "geometry": { "type": "Point", "coordinates": [ 83.2716113, 17.7354822 ] } },
{ "type": "Feature", "properties": { "kind": "hospital", "name": "Satyam Hospital", "capacity": 0, "is_shelter": false }, "geometry": { "type": "Point", "coordinates": [ 83.2187018, 17.7499948 ] } },
{ "type": "Feature", "properties": { "kind": "hospital", "name": "SR Hospital", "capacity": 0, "is_shelter": false }, "geometry": { "type": "Point", "coordinates": [ 83.2173438, 17.752968 ] } },
{ "type": "Feature", "properties": { "kind": "hospital", "name": "Dr Rama Rao Hospital", "capacity": 0, "is_shelter": false }, "geometry": { "type": "Point", "coordinates": [ 83.2790163, 17.7332163 ] } },
{ "type": "Feature", "properties": { "kind": "hospital", "name": "Sun Multi Speciality Hospital", "capacity": 0, "is_shelter": false }, "geometry": { "type": "Point", "coordinates": [ 83.277593, 17.7350755 ] } },
{ "type": "Feature", "properties": { "kind": "hospital", "name": "Suma Maternity Home", "capacity": 0, "is_shelter": false }, "geometry": { "type": "Point", "coordinates": [ 83.2642758, 17.7463633 ] } },
{ "type": "Feature", "properties": { "kind": "hospital", "name": "Kamala Nursing Home", "capacity": 0, "is_shelter": false }, "geometry": { "type": "Point", "coordinates": [ 83.250969, 17.7404309 ] } },
{ "type": "Feature", "properties": { "kind": "hospital", "name": "Sunrise Hospitals", "capacity": 0, "is_shelter": false }, "geometry": { "type": "Point", "coordinates": [ 83.2662977, 17.7409007 ] } },
{ "type": "Feature", "properties": { "kind": "hospital", "name": "Hymavathi Hospital", "capacity": 0, "is_shelter": false }, "geometry": { "type": "Point", "coordinates": [ 83.2192385, 17.7480338 ] } },
{ "type": "Feature", "properties": { "kind": "hospital", "name": "Sarojini Children's Hospital", "capacity": 0, "is_shelter": false }, "geometry": { "type": "Point", "coordinates": [ 83.2265444, 17.7445712 ] } },
{ "type": "Feature", "properties": { "kind": "hospital", "name": "SMS Hospital", "capacity": 0, "is_shelter": false }, "geometry": { "type": "Point", "coordinates": [ 83.2261912, 17.7452036 ] } },
{ "type": "Feature", "properties": { "kind": "hospital", "name": "Suryanarayana Hospital", "capacity": 0, "is_shelter": false }, "geometry": { "type": "Point", "coordinates": [ 83.2186331, 17.7508459 ] } },
{ "type": "Feature", "properties": { "kind": "hospital", "name": "Aditya Obstetrics & Gynecology Hospital", "capacity": 0, "is_shelter": false }, "geometry": { "type": "Point", "coordinates": [ 83.269641, 17.745985 ] } },
{ "type": "Feature", "properties": { "kind": "hospital", "name": "Sri Sai Balaji Clinic", "capacity": 0, "is_shelter": false }, "geometry": { "type": "Point", "coordinates": [ 83.2368507, 17.7418536 ] } },
{ "type": "Feature", "properties": { "kind": "hospital", "name": "Sri Sai Aditya Hospital", "capacity": 0, "is_shelter": false }, "geometry": { "type": "Point", "coordinates": [ 83.269671, 17.746278 ] } },
{ "type": "Feature", "properties": { "kind": "hospital", "name": "Janaki Polyclinic", "capacity": 0, "is_shelter": false }, "geometry": { "type": "Point", "coordinates": [ 83.2049423, 17.6930517 ] } },
{ "type": "Feature", "properties": { "kind": "hospital", "name": "Government Hospital", "capacity": 0, "is_shelter": false }, "geometry": { "type": "Point", "coordinates": [ 83.2161371, 17.7524734 ] } },
{ "type": "Feature", "properties": { "kind": "hospital", "name": "Raghavendra Eye Hospital", "capacity": 0, "is_shelter": false }, "geometry": { "type": "Point", "coordinates": [ 83.2199593, 17.7476896 ] } },
{ "type": "Feature", "properties": { "kind": "hospital", "name": "ENT Clinic", "capacity": 0, "is_shelter": false }, "geometry": { "type": "Point", "coordinates": [ 83.218258, 17.75108 ] } },
{ "type": "Feature", "properties": { "kind": "hospital", "name": "Suraksha Hospital", "capacity": 0, "is_shelter": false }, "geometry": { "type": "Point", "coordinates": [ 83.2555653, 17.7396152 ] } },
{ "type": "Feature", "properties": { "kind": "hospital", "name": "Chest Hospital and Medical Store", "capacity": 0, "is_shelter": false }, "geometry": { "type": "Point", "coordinates": [ 83.2191542, 17.7493798 ] } },
{ "type": "Feature", "properties": { "kind": "hospital", "name": "Suneetha Hospital Dr V Anand Rao", "capacity": 0, "is_shelter": false }, "geometry": { "type": "Point", "coordinates": [ 83.2535864, 17.7401303 ] } },
{ "type": "Feature", "properties": { "kind": "school", "name": "Sri Chaitanya Techno School", "capacity": 300, "is_shelter": true }, "geometry": { "type": "Point", "coordinates": [ 83.2375401, 17.7413557 ] } },
{ "type": "Feature", "properties": { "kind": "shelter", "name": "unnamed", "capacity": 500, "is_shelter": true }, "geometry": { "type": "Point", "coordinates": [ 83.2597488, 17.743137 ] } },
{ "type": "Feature", "properties": { "kind": "hospital", "name": "Dr BV Adinarayana Childrens Specialist", "capacity": 0, "is_shelter": false }, "geometry": { "type": "Point", "coordinates": [ 83.2719764, 17.7350078 ] } },
{ "type": "Feature", "properties": { "kind": "school", "name": "Rightway School", "capacity": 300, "is_shelter": true }, "geometry": { "type": "Point", "coordinates": [ 83.2700271, 17.7349954 ] } },
{ "type": "Feature", "properties": { "kind": "school", "name": "Sri Vagdevi School", "capacity": 300, "is_shelter": true }, "geometry": { "type": "Point", "coordinates": [ 83.270296, 17.7354555 ] } },
{ "type": "Feature", "properties": { "kind": "school", "name": "GVMC Primary School", "capacity": 300, "is_shelter": true }, "geometry": { "type": "Point", "coordinates": [ 83.2785659, 17.7313197 ] } },
{ "type": "Feature", "properties": { "kind": "school", "name": "Delhi Public School", "capacity": 300, "is_shelter": true }, "geometry": { "type": "Point", "coordinates": [ 83.2396113, 17.7425283 ] } },
{ "type": "Feature", "properties": { "kind": "shelter", "name": "unnamed", "capacity": 500, "is_shelter": true }, "geometry": { "type": "Point", "coordinates": [ 83.235484, 17.6900154 ] } },
{ "type": "Feature", "properties": { "kind": "hospital", "name": "Sanjivani Hospital", "capacity": 0, "is_shelter": false }, "geometry": { "type": "Point", "coordinates": [ 83.2464417, 17.7403603 ] } },
{ "type": "Feature", "properties": { "kind": "school", "name": "Government School", "capacity": 300, "is_shelter": true }, "geometry": { "type": "Point", "coordinates": [ 83.2426355, 17.7400572 ] } },
{ "type": "Feature", "properties": { "kind": "school", "name": "Sri Gayatri Vidya Nilayam", "capacity": 300, "is_shelter": true }, "geometry": { "type": "Point", "coordinates": [ 83.2513306, 17.7499395 ] } },
{ "type": "Feature", "properties": { "kind": "school", "name": "PEN School", "capacity": 300, "is_shelter": true }, "geometry": { "type": "Point", "coordinates": [ 83.2525354, 17.7497761 ] } },
{ "type": "Feature", "properties": { "kind": "school", "name": "Balabhanu School", "capacity": 300, "is_shelter": true }, "geometry": { "type": "Point", "coordinates": [ 83.264788374267198, 17.750918410749108 ] } },
{ "type": "Feature", "properties": { "kind": "school", "name": "Apporva School", "capacity": 300, "is_shelter": true }, "geometry": { "type": "Point", "coordinates": [ 83.261473463555959, 17.749578162446983 ] } },
{ "type": "Feature", "properties": { "kind": "school", "name": "Stella Maris School", "capacity": 300, "is_shelter": true }, "geometry": { "type": "Point", "coordinates": [ 83.242263478157014, 17.745933388516129 ] } },
{ "type": "Feature", "properties": { "kind": "school", "name": "Narayana Junior College", "capacity": 300, "is_shelter": true }, "geometry": { "type": "Point", "coordinates": [ 83.23423394214467, 17.743848372044734 ] } },
{ "type": "Feature", "properties": { "kind": "school", "name": "Viswateja", "capacity": 300, "is_shelter": true }, "geometry": { "type": "Point", "coordinates": [ 83.289527727483502, 17.733216374267812 ] } },
{ "type": "Feature", "properties": { "kind": "shelter", "name": "unnamed", "capacity": 500, "is_shelter": true }, "geometry": { "type": "Point", "coordinates": [ 83.223552792206519, 17.728924021206662 ] } },
{ "type": "Feature", "properties": { "kind": "school", "name": "unnamed", "capacity": 300, "is_shelter": true }, "geometry": { "type": "Point", "coordinates": [ 83.28458123430093, 17.71961896759392 ] } },
{ "type": "Feature", "properties": { "kind": "school", "name": "St. Joseph's College for Women", "capacity": 300, "is_shelter": true }, "geometry": { "type": "Point", "coordinates": [ 83.28747189009863, 17.718551378393251 ] } },
{ "type": "Feature", "properties": { "kind": "shelter", "name": "unnamed", "capacity": 500, "is_shelter": true }, "geometry": { "type": "Point", "coordinates": [ 83.243906680800364, 17.740959000977742 ] } },
{ "type": "Feature", "properties": { "kind": "shelter", "name": "unnamed", "capacity": 500, "is_shelter": true }, "geometry": { "type": "Point", "coordinates": [ 83.249570250008873, 17.740430400022291 ] } },
{ "type": "Feature", "properties": { "kind": "shelter", "name": "unnamed", "capacity": 500, "is_shelter": true }, "geometry": { "type": "Point", "coordinates": [ 83.249523150008869, 17.740306100022291 ] } },
{ "type": "Feature", "properties": { "kind": "shelter", "name": "unnamed", "capacity": 500, "is_shelter": true }, "geometry": { "type": "Point", "coordinates": [ 83.256452650019511, 17.738963900018092 ] } },
{ "type": "Feature", "properties": { "kind": "shelter", "name": "unnamed", "capacity": 500, "is_shelter": true }, "geometry": { "type": "Point", "coordinates": [ 83.257002450018405, 17.738948300018723 ] } },
{ "type": "Feature", "properties": { "kind": "shelter", "name": "unnamed", "capacity": 500, "is_shelter": true }, "geometry": { "type": "Point", "coordinates": [ 83.263829650016632, 17.73681640001961 ] } },
{ "type": "Feature", "properties": { "kind": "shelter", "name": "unnamed", "capacity": 500, "is_shelter": true }, "geometry": { "type": "Point", "coordinates": [ 83.265418450015247, 17.736289100020226 ] } },
{ "type": "Feature", "properties": { "kind": "shelter", "name": "unnamed", "capacity": 500, "is_shelter": true }, "geometry": { "type": "Point", "coordinates": [ 83.242667213940337, 17.740945779233549 ] } },
{ "type": "Feature", "properties": { "kind": "shelter", "name": "unnamed", "capacity": 500, "is_shelter": true }, "geometry": { "type": "Point", "coordinates": [ 83.270982750016117, 17.735008200019269 ] } },
{ "type": "Feature", "properties": { "kind": "shelter", "name": "unnamed", "capacity": 500, "is_shelter": true }, "geometry": { "type": "Point", "coordinates": [ 83.27239549091108, 17.734497343177424 ] } },
{ "type": "Feature", "properties": { "kind": "shelter", "name": "unnamed", "capacity": 500, "is_shelter": true }, "geometry": { "type": "Point", "coordinates": [ 83.277564850019942, 17.732604750013451 ] } },
{ "type": "Feature", "properties": { "kind": "shelter", "name": "unnamed", "capacity": 500, "is_shelter": true }, "geometry": { "type": "Point", "coordinates": [ 83.287582400028029, 17.719856000003098 ] } },
{ "type": "Feature", "properties": { "kind": "shelter", "name": "unnamed", "capacity": 500, "is_shelter": true }, "geometry": { "type": "Point", "coordinates": [ 83.286987700018159, 17.72109044998777 ] } },
{ "type": "Feature", "properties": { "kind": "shelter", "name": "unnamed", "capacity": 500, "is_shelter": true }, "geometry": { "type": "Point", "coordinates": [ 83.289018400019174, 17.717938149994641 ] } },
{ "type": "Feature", "properties": { "kind": "shelter", "name": "unnamed", "capacity": 500, "is_shelter": true }, "geometry": { "type": "Point", "coordinates": [ 83.289158250019199, 17.718008049994648 ] } },
{ "type": "Feature", "properties": { "kind": "shelter", "name": "unnamed", "capacity": 500, "is_shelter": true }, "geometry": { "type": "Point", "coordinates": [ 83.217699316710025, 17.7527567374526 ] } },
{ "type": "Feature", "properties": { "kind": "shelter", "name": "unnamed", "capacity": 500, "is_shelter": true }, "geometry": { "type": "Point", "coordinates": [ 83.217885361250993, 17.751102245537027 ] } },
{ "type": "Feature", "properties": { "kind": "shelter", "name": "unnamed", "capacity": 500, "is_shelter": true }, "geometry": { "type": "Point", "coordinates": [ 83.218840337956152, 17.74928553414647 ] } },
{ "type": "Feature", "properties": { "kind": "shelter", "name": "unnamed", "capacity": 500, "is_shelter": true }, "geometry": { "type": "Point", "coordinates": [ 83.227992800013496, 17.744128800020022 ] } },
{ "type": "Feature", "properties": { "kind": "shelter", "name": "unnamed", "capacity": 500, "is_shelter": true }, "geometry": { "type": "Point", "coordinates": [ 83.228835850009261, 17.743849650021353 ] } },
{ "type": "Feature", "properties": { "kind": "shelter", "name": "unnamed", "capacity": 500, "is_shelter": true }, "geometry": { "type": "Point", "coordinates": [ 83.232907481486919, 17.74353168142985 ] } },
{ "type": "Feature", "properties": { "kind": "shelter", "name": "unnamed", "capacity": 500, "is_shelter": true }, "geometry": { "type": "Point", "coordinates": [ 83.237765550011588, 17.742003800014142 ] } },
{ "type": "Feature", "properties": { "kind": "shelter", "name": "unnamed", "capacity": 500, "is_shelter": true }, "geometry": { "type": "Point", "coordinates": [ 83.238073239274584, 17.741833847828538 ] } },
{ "type": "Feature", "properties": { "kind": "school", "name": "Sri Chaitanya Junior College", "capacity": 300, "is_shelter": true }, "geometry": { "type": "Point", "coordinates": [ 83.233593900467284, 17.742676038760667 ] } },
{ "type": "Feature", "properties": { "kind": "school", "name": "SVLN ZP High School", "capacity": 300, "is_shelter": true }, "geometry": { "type": "Point", "coordinates": [ 83.217682211292413, 17.750025724116849 ] } },
{ "type": "Feature", "properties": { "kind": "hospital", "name": "Behara Hospital", "capacity": 0, "is_shelter": false }, "geometry": { "type": "Point", "coordinates": [ 83.2168325445448, 17.755218626252923 ] } },
{ "type": "Feature", "properties": { "kind": "school", "name": "Alwardas Polytechnic", "capacity": 300, "is_shelter": true }, "geometry": { "type": "Point", "coordinates": [ 83.217983749736803, 17.757561683927882 ] } },
{ "type": "Feature", "properties": { "kind": "school", "name": "Alwardas School", "capacity": 300, "is_shelter": true }, "geometry": { "type": "Point", "coordinates": [ 83.218248948824169, 17.757049113765429 ] } },
{ "type": "Feature", "properties": { "kind": "school", "name": "Government Polytechnic", "capacity": 300, "is_shelter": true }, "geometry": { "type": "Point", "coordinates": [ 83.26904395237699, 17.739985815721756 ] } },
{ "type": "Feature", "properties": { "kind": "school", "name": "Govt ITI", "capacity": 300, "is_shelter": true }, "geometry": { "type": "Point", "coordinates": [ 83.268387990705591, 17.737052814471866 ] } },
{ "type": "Feature", "properties": { "kind": "school", "name": "Government Institute Of Chemical Engineering", "capacity": 300, "is_shelter": true }, "geometry": { "type": "Point", "coordinates": [ 83.267284735287376, 17.738279457520232 ] } },
{ "type": "Feature", "properties": { "kind": "school", "name": "unnamed", "capacity": 300, "is_shelter": true }, "geometry": { "type": "Point", "coordinates": [ 83.257706412564218, 17.726273181698861 ] } },
{ "type": "Feature", "properties": { "kind": "school", "name": "Daffodils School", "capacity": 300, "is_shelter": true }, "geometry": { "type": "Point", "coordinates": [ 83.24597407627283, 17.750677262880124 ] } },
{ "type": "Feature", "properties": { "kind": "school", "name": "Saint Ann's School Grounds", "capacity": 300, "is_shelter": true }, "geometry": { "type": "Point", "coordinates": [ 83.232680177628069, 17.744828049627493 ] } },
{ "type": "Feature", "properties": { "kind": "school", "name": "Balaji School", "capacity": 300, "is_shelter": true }, "geometry": { "type": "Point", "coordinates": [ 83.219635600960203, 17.755773227116801 ] } },
{ "type": "Feature", "properties": { "kind": "school", "name": "unnamed", "capacity": 300, "is_shelter": true }, "geometry": { "type": "Point", "coordinates": [ 83.259100814115399, 17.73752855013975 ] } },
{ "type": "Feature", "properties": { "kind": "school", "name": "Raviki's Little Champs School", "capacity": 300, "is_shelter": true }, "geometry": { "type": "Point", "coordinates": [ 83.248238350002978, 17.750160900013135 ] } },
{ "type": "Feature", "properties": { "kind": "shelter", "name": "Mandapam VUDA Colony Community Hall", "capacity": 500, "is_shelter": true }, "geometry": { "type": "Point", "coordinates": [ 83.249951075153888, 17.750421305081243 ] } },
{ "type": "Feature", "properties": { "kind": "school", "name": "Delhi Public School", "capacity": 300, "is_shelter": true }, "geometry": { "type": "Point", "coordinates": [ 83.257634199996588, 17.748850199997939 ] } },
{ "type": "Feature", "properties": { "kind": "school", "name": "D.A.V. School", "capacity": 300, "is_shelter": true }, "geometry": { "type": "Point", "coordinates": [ 83.23058739784905, 17.746837527645301 ] } }
]
}
